{"type": "FeatureCollection", "features": [ {"type": "Feature", "properties": {"norad_id": 35777, "name": "COSMOS 2251 DEB", "group": "cosmos-2251-debris", "lat": 51.822187175714106, "lon": 100.63553647533625, "alt_km": 972.2338625363273, "timestamp": "2025-12-25T11:37:44.836077+00:00", "meta": {"OBJECT_NAME": "COSMOS 2251 DEB", "OBJECT_ID": "1993-036ARX", "EPOCH": "2025-12-24T14:23:44.831616", "MEAN_MOTION": 13.413075, "ECCENTRICITY": 0.04517519, "INCLINATION": 73.7706, "RA_OF_ASC_NODE": 303.7897, "ARG_OF_PERICENTER": 196.885, "MEAN_ANOMALY": 342.3935, "EPHEMERIS_TYPE": 0, "CLASSIFICATION_TYPE": "U", "NORAD_CAT_ID": 35777, "ELEMENT_SET_NO": 999, "REV_AT_EPOCH": 79843, "BSTAR": 0.00021081744, "MEAN_MOTION_DOT": 1.91e-06, "MEAN_MOTION_DDOT": 0}, "tle": {"line1": "1 35777U 93036ARX 25358.59982444  .00000191  00000+0  21082-3 0  9994", "line2": "2 35777  73.7706 303.7897 0451751 196.8850 342.3935 13.41307500798432"}}, "geometry": {"type": "Point", "coordinates": [100.63553647533625, 51.822187175714106]}}, {"type": "Feature", "properties": {"norad_id": 35784, "name": "COSMOS 2251 DEB", "group": "cosmos-2251-debris", "lat": -66.20458952100107, "lon": 25.319804812636967, "alt_km": 734.2058963307227, "timestamp": "2025-12-25T11:37:44.836088+00:00", "meta": {"OBJECT_NAME": "COSMOS 2251 DEB", "OBJECT_ID": "1993-036ASE", "EPOCH": "2025-12-17T23:28:57.859680", "MEAN_MOTION": 14.50055355, "ECCENTRICITY": 0.00415956, "INCLINATION": 74.0403, "RA_OF_ASC_NODE": 79.8718, "ARG_OF_PERICENTER": 209.9484, "MEAN_ANOMALY": 149.9297, "EPHEMERIS_TYPE": 0, "CLASSIFICATION_TYPE": "U", "NORAD_CAT_ID": 35784, "ELEMENT_SET_NO": 999, "REV_AT_EPOCH": 65782, "BSTAR": 0.00024795111, "MEAN_MOTION_DOT": 9.44e-06, "MEAN_MOTION_DDOT": 0}, "tle": {"line1": "1 35784U 93036ASE 25351.97844745  .00000944  00000+0  24795-3 0  9998", "line2": "2 35784  74.0403  79.8718 0041595 209.9484 149.9297 14.50055355657829"}}, "geometry": {"type": "Point", "coordinates": [25.319804812636967, -66.20458952100107]}}, {"type": "Feature", "properties": {"norad_id": 35786, "name": "COSMOS 2251 DEB", "group": "cosmos-2251-debris", "lat": -47.74872607255762, "lon": -142.42995955948817, "alt_km": 676.9181902965265, "timestamp": "2025-12-25T11:37:44.836098+00:00", "meta": {"OBJECT_NAME": "COSMOS 2251 DEB", "OBJECT_ID": "1993-036ASG", "EPOCH": "2025-12-21T19:48:04.443552", "MEAN_MOTION": 14.66307498, "ECCENTRICITY": 0.00333198, "INCLINATION": 74.0136, "RA_OF_ASC_NODE": 26.2337, "ARG_OF_PERICENTER": 153.7976, "MEAN_ANOMALY": 206.4889, "EPHEMERIS_TYPE": 0, "CLASSIFICATION_TYPE": "U", "NORAD_CAT_ID": 35786, "ELEMENT_SET_NO": 999, "REV_AT_EPOCH": 73541, "BSTAR": 0.0006728661, "MEAN_MOTION_DOT": 3.713e-05, "MEAN_MOTION_DDOT": 0}, "tle": {"line1": "1 35786U 93036ASG 25355.82505143  .00003713  00000+0  67287-3 0  9994", "line2": "2 35786  74.0136  26.2337 0033319 153.7976 206.4889 14.66307498735417"}}, "geometry": {"type": "Point", "coordinates": [-142.42995955948817, -47.74872607255762]}}, {"type": "Feature", "properties": {"norad_id": 35789, "name": "COSMOS 2251 DEB", "group": "cosmos-2251-debris", "lat": -25.1530199803392, "lon": -106.7465622940072, "alt_km": 745.5610276740799, "timestamp": "2025-12-25T11:37:44.836108+00:00", "meta": {"OBJECT_NAME": "COSMOS 2251 DEB", "OBJECT_ID": "1993-036ASK", "EPOCH": "2025-12-25T00:02:45.655584", "MEAN_MOTION": 14.35995111, "ECCENTRICITY": 0.0047864, "INCLINATION": 74.0386, "RA_OF_ASC_NODE": 261.8623, "ARG_OF_PERICENTER": 358.287, "MEAN_ANOMALY": 1.8111, "EPHEMERIS_TYPE": 0, "CLASSIFICATION_TYPE": "U", "NORAD_CAT_ID": 35789, "ELEMENT_SET_NO": 999, "REV_AT_EPOCH": 61403, "BSTAR": 0.00012355, "MEAN_MOTION_DOT": 3.37e-06, "MEAN_MOTION_DDOT": 0}, "tle": {"line1": "1 35789U 93036ASK 25359.00191731  .00000337  00000+0  12355-3 0  9990", "line2": "2 35789  74.0386 261.8623 0047864 358.2870   1.8111 14.35995111614037"}}, "geometry": {"type": "Point", "coordinates": [-106.7465622940072, -25.1530199803392]}}, {"type": "Feature", "properties": {"norad_id": 35793, "name": "COSMOS 2251 DEB", "group": "cosmos-2251-debris", "lat": -9.89508146114919, "lon": -142.0034723072813, "alt_km": 637.1931723144371, "timestamp": "2025-12-25T11:37:44.836118+00:00", "meta": {"OBJECT_NAME": "COSMOS 2251 DEB", "OBJECT_ID": "1993-036ASP", "EPOCH": "2025-12-22T19:59:17.179008", "MEAN_MOTION": 14.78898886, "ECCENTRICITY": 0.00021779, "INCLINATION": 74.0403, "RA_OF_ASC_NODE": 40.3457, "ARG_OF_PERICENTER": 77.0765, "MEAN_ANOMALY": 40.8773, "EPHEMERIS_TYPE": 0, "CLASSIFICATION_TYPE": "U", "NORAD_CAT_ID": 35793, "ELEMENT_SET_NO": 999, "REV_AT_EPOCH": 65946, "BSTAR": 0.0016902624, "MEAN_MOTION_DOT": 0.0001245, "MEAN_MOTION_DDOT": 0}, "tle": {"line1": "1 35793U 93036ASP 25356.83283772  .00012450  00000+0  16903-2 0  9991", "line2": "2 35793  74.0403  40.3457 0002177  77.0765  40.8773 14.78898886659465"}}, "geometry": {"type": "Point", "coordinates": [-142.0034723072813, -9.89508146114919]}}, {"type": "Feature", "properties": {"norad_id": 35824, "name": "COSMOS 2251 DEB", "group": "cosmos-2251-debris", "lat": 23.647821984867967, "lon": 34.17623794813743, "alt_km": 915.634104742031, "timestamp": "2025-12-25T11:37:44.836128+00:00", "meta": {"OBJECT_NAME": "COSMOS 2251 DEB", "OBJECT_ID": "1993-036ASW", "EPOCH": "2025-12-22T19:31:45.102144", "MEAN_MOTION": 13.88451582, "ECCENTRICITY": 0.02474981, "INCLINATION": 73.8455, "RA_OF_ASC_NODE": 31.474, "ARG_OF_PERICENTER": 115.7236, "MEAN_ANOMALY": 246.9666, "EPHEMERIS_TYPE": 0, "CLASSIFICATION_TYPE": "U", "NORAD_CAT_ID": 35824, "ELEMENT_SET_NO": 999, "REV_AT_EPOCH": 84367, "BSTAR": 0.00094378544, "MEAN_MOTION_DOT": 1.423e-05, "MEAN_MOTION_DDOT": 0}, "tle": {"line1": "1 35824U 93036ASW 25356.81371646  .00001423  00000+0  94379-3 0  9994", "line2": "2 35824  73.8455  31.4740 0247498 115.7236 246.9666 13.88451582843676"}}, "geometry": {"type": "Point", "coordinates": [34.17623794813743, 23.647821984867967]}}, {"type": "Feature", "properties": {"norad_id": 35825, "name": "COSMOS 2251 DEB", "group": "cosmos-2251-debris", "lat": -32.72848760211739, "lon": 111.1476272779524, "alt_km": 1088.2247418701672, "timestamp": "2025-12-25T11:37:44.836138+00:00", "meta": {"OBJECT_NAME": "COSMOS 2251 DEB", "OBJECT_ID": "1993-036ASX", "EPOCH": "2025-12-14T02:36:29.406816", "MEAN_MOTION": 13.70963524, "ECCENTRICITY": 0.03526119, "INCLINATION": 74.113, "RA_OF_ASC_NODE": 140.3902, "ARG_OF_PERICENTER": 235.9093, "MEAN_ANOMALY": 120.8102, "EPHEMERIS_TYPE": 0, "CLASSIFICATION_TYPE": "U", "NORAD_CAT_ID": 35825, "ELEMENT_SET_NO": 999, "REV_AT_EPOCH": 82527, "BSTAR": 0.0023333684, "MEAN_MOTION_DOT": 3.214e-05, "MEAN_MOTION_DDOT": 0}, "tle": {"line1": "1 35825U 93036ASX 25348.10867369  .00003214  00000+0  23334-2 0  9992", "line2": "2 35825  74.1130 140.3902 0352611 235.9093 120.8102 13.70963524825277"}}, "geometry": {"type": "Point", "coordinates": [111.1476272779524, -32.72848760211739]}}, {"type": "Feature", "properties": {"norad_id": 35829, "name": "COSMOS 2251 DEB", "group": "cosmos-2251-debris", "lat": -0.714029047511861, "lon": 73.62958733306992, "alt_km": 645.3180159537351, "timestamp": "2025-12-25T11:37:44.836148+00:00", "meta": {"OBJECT_NAME": "COSMOS 2251 DEB", "OBJECT_ID": "1993-036ATB", "EPOCH": "2025-12-17T00:21:46.598688", "MEAN_MOTION": 14.76400839, "ECCENTRICITY": 0.0005573, "INCLINATION": 74.0249, "RA_OF_ASC_NODE": 90.4281, "ARG_OF_PERICENTER": 146.0686, "MEAN_ANOMALY": 214.0846, "EPHEMERIS_TYPE": 0, "CLASSIFICATION_TYPE": "U", "NORAD_CAT_ID": 35829, "ELEMENT_SET_NO": 999, "REV_AT_EPOCH": 87838, "BSTAR": 0.001494418, "MEAN_MOTION_DOT": 0.00010373, "MEAN_MOTION_DDOT": 0}, "tle": {"line1": "1 35829U 93036ATB 25351.01512267  .00010373  00000+0  14944-2 0  9995", "line2": "2 35829  74.0249  90.4281 0005573 146.0686 214.0846 14.76400839878381"}}, "geometry": {"type": "Point", "coordinates": [73.62958733306992, -0.714029047511861]}}, {"type": "Feature", "properties": {"norad_id": 35830, "name": "COSMOS 2251 DEB", "group": "cosmos-2251-debris", "lat": 55.39424052489952, "lon": -91.94703312070116, "alt_km": 881.426825259412, "timestamp": "2025-12-25T11:37:44.836158+00:00", "meta": {"OBJECT_NAME": "COSMOS 2251 DEB", "OBJECT_ID": "1993-036ATC", "EPOCH": "2025-12-24T23:32:41.332416", "MEAN_MOTION": 14.24062009, "ECCENTRICITY": 0.0121424, "INCLINATION": 73.8614, "RA_OF_ASC_NODE": 244.1574, "ARG_OF_PERICENTER": 210.1431, "MEAN_ANOMALY": 149.2692, "EPHEMERIS_TYPE": 0, "CLASSIFICATION_TYPE": "U", "NORAD_CAT_ID": 35830, "ELEMENT_SET_NO": 999, "REV_AT_EPOCH": 61438, "BSTAR": 0.0012045, "MEAN_MOTION_DOT": 2.963e-05, "MEAN_MOTION_DDOT": 0}, "tle": {"line1": "1 35830U 93036ATC 25358.98103394  .00002963  00000+0  12045-2 0  9993", "line2": "2 35830  73.8614 244.1574 0121424 210.1431 149.2692 14.24062009614386"}}, "geometry": {"type": "Point", "coordinates": [-91.94703312070116, 55.39424052489952]}}, {"type": "Feature", "properties": {"norad_id": 35834, "name": "COSMOS 2251 DEB", "group": "cosmos-2251-debris", "lat": 62.35050099848548, "lon": 68.4902755866906, "alt_km": 776.6743492106352, "timestamp": "2025-12-25T11:37:44.836168+00:00", "meta": {"OBJECT_NAME": "COSMOS 2251 DEB", "OBJECT_ID": "1993-036ATG", "EPOCH": "2025-12-25T00:59:01.122144", "MEAN_MOTION": 14.12999686, "ECCENTRICITY": 0.0109318, "INCLINATION": 73.934, "RA_OF_ASC_NODE": 282.651, "ARG_OF_PERICENTER": 79.9529, "MEAN_ANOMALY": 296.6913, "EPHEMERIS_TYPE": 0, "CLASSIFICATION_TYPE": "U", "NORAD_CAT_ID": 35834, "ELEMENT_SET_NO": 999, "REV_AT_EPOCH": 66437, "BSTAR": 0.00039327, "MEAN_MOTION_DOT": 7.52e-06, "MEAN_MOTION_DDOT": 0}, "tle": {"line1": "1 35834U 93036ATG 25359.04098521  .00000752  00000+0  39327-3 0  9997", "line2": "2 35834  73.9340 282.6510 0109318  79.9529 296.6913 14.12999686664375"}}, "geometry": {"type": "Point", "coordinates": [68.4902755866906, 62.35050099848548]}}]}